STARLINK-30602          
1 58081U 23160G   26068.04324128  .00004737  00000+0  20841-3 0  9998
2 58081  43.0026  81.8046 0000815 268.3637  91.7120 15.22911342132843
SPACEMOBILE-002         
1 61048U 24163D   26068.36588514  .00016068  00000+0  72579-3 0  9990
2 61048  52.9822  48.2355 0007123 175.9464 184.1590 15.21108485 82570
