[{"OBJECT_NAME":"STARLINK-30602","OBJECT_ID":"2023-160G","EPOCH":"2026-03-09T01:02:16.046592","MEAN_MOTION":15.22911342,"ECCENTRICITY":8.15e-5,"INCLINATION":43.0026,"RA_OF_ASC_NODE":81.8046,"ARG_OF_PERICENTER":268.3637,"MEAN_ANOMALY":91.712,"EPHEMERIS_TYPE":0,"CLASSIFICATION_TYPE":"U","NORAD_CAT_ID":58081,"ELEMENT_SET_NO":999,"REV_AT_EPOCH":13284,"BSTAR":0.00020841055,"MEAN_MOTION_DOT":4.737e-5,"MEAN_MOTION_DDOT":0},{"OBJECT_NAME":"SPACEMOBILE-002","OBJECT_ID":"2024-163D","EPOCH":"2026-03-09T08:46:52.476096","MEAN_MOTION":15.21108485,"ECCENTRICITY":0.00071237,"INCLINATION":52.9822,"RA_OF_ASC_NODE":48.2355,"ARG_OF_PERICENTER":175.9464,"MEAN_ANOMALY":184.159,"EPHEMERIS_TYPE":0,"CLASSIFICATION_TYPE":"U","NORAD_CAT_ID":61048,"ELEMENT_SET_NO":999,"REV_AT_EPOCH":8257,"BSTAR":0.00072579441,"MEAN_MOTION_DOT":0.00016068,"MEAN_MOTION_DDOT":0}]
